KUIPER-00125            
1 65954U 25228H   25323.73980732  .00037339  00000+0  10746-2 0  9996
2 65954  51.8773 131.3930 0005167 274.7595  85.2800 15.35401950  6888
KUIPER-00126            
1 65955U 25228J   25323.91668981 -.00780412  00000+0 -36383-1 0  9999
2 65955  51.8870 131.3406 0005687 294.9935 269.0879 15.21959544  4646
KUIPER-00127            
1 65956U 25228K   25323.91668981 -.00066212  00000+0 -24492-2 0  9994
2 65956  51.8801 130.7403 0004912 290.0128 244.8085 15.27299681  5761
KUIPER-00128            
1 65957U 25228L   25323.73951581  .00035583  00000+0  10355-2 0  9994
2 65957  51.8784 131.3999 0005590 275.9588  84.0761 15.35076506  6881
KUIPER-00129            
1 65958U 25228M   25323.73698203  .00034937  00000+0  10048-2 0  9995
2 65958  51.8788 131.3833 0004399 258.9333 101.1159 15.35460687  6887
KUIPER-00130            
1 65959U 25228N   25323.87361293  .00034855  00000+0  10204-2 0  9990
2 65959  51.8778 130.7897 0005490 284.8037  75.2340 15.34896877  6901
KUIPER-00134            
1 65960U 25228P   25323.87559833  .00056846  00000+0  16461-2 0  9996
2 65960  51.8773 130.8021 0006397 283.0258  77.0013 15.35012757  6906
KUIPER-00135            
1 65961U 25228Q   25323.74506193  .00032152  00000+0  94452-3 0  9995
2 65961  51.8784 131.4374 0003374 276.1567  83.9034 15.34836496  6884
